# From MPC106342
C/1995 O1 (Hale-Bopp),e,89.0294,283.2771,130.5272,178.8864,0.0004119,0.99494864,0.0000,03/29.7426/1997,2000,g -2.0,4.0
# From NK 1615
P/1996 R2 (Lagerkvist),e,2.6003,40.0274,333.3143,3.775017,0.1343772,0.31410619,99.4793,02/21.0/2021,2000,g 11.5,4.0
# From MPC 30063
P/1997 B1 (Kobayashi),e,12.3395,328.8827,183.3507,8.570529,0.0392819,0.76014928,344.2563,02/21.0/2021,2000,g 15.0,2.0
# From MPC 75703
P/1998 VS24 (LINEAR),e,5.0256,159.0326,244.6520,4.529042,0.1022573,0.24209342,115.5486,02/21.0/2021,2000,g 13.0,2.0
# From NK 731
P/1999 RO28 (LONEOS),e,7.5670,137.8845,231.2659,3.426736,0.1553757,0.67212594,94.1334,02/21.0/2021,2000,g 20.0,2.0
# From MPC 75704
P/1999 XN120 (Catalina),e,5.0296,285.2963,161.8732,4.179035,0.1153693,0.21027560,155.9465,02/21.0/2021,2000,g 13.5,2.0
# From NK 744
P/2000 R2 (LINEAR),e,11.6852,160.2912,176.5253,3.466319,0.1527219,0.53159072,93.8547,02/21.0/2021,2000,g 18.0,4.0
# From MPC 43019
P/2001 H5 (NEAT),e,8.3669,328.6836,224.8629,6.098040,0.0654514,0.59856232,127.7647,02/21.0/2021,2000,g 12.0,4.0
# From MPC 75704
P/2001 Q6 (NEAT),e,56.9052,22.1412,42.9380,7.951934,0.0439536,0.82287197,311.5205,02/21.0/2021,2000,g 13.5,4.0
# From MPC 47727
P/2002 EJ57 (LINEAR),e,4.9762,330.3271,167.3668,6.472247,0.0598579,0.59261449,58.5837,02/21.0/2021,2000,g 12.5,4.0
# From MPC109588
P/2002 T6 (NEAT-LINEAR),e,10.8343,206.3745,219.6316,7.675554,0.0463489,0.56030145,302.1531,02/21.0/2021,2000,g 10.5,4.0
# From MPC 75007
C/2002 VQ94 (LINEAR),e,70.5835,35.0290,100.1514,185.5603,0.0003899,0.96317679,2.1460,02/21.0/2021,2000,g  9.5,2.0
# From MPC 50354
P/2003 F2 (NEAT),e,11.6047,359.0581,191.9871,6.494026,0.0595570,0.54231278,27.7854,02/21.0/2021,2000,g 16.5,2.0
# From MPC 50139
P/2003 QX29 (NEAT),e,11.3899,264.5812,37.4394,8.030564,0.0433097,0.47300043,289.5754,02/21.0/2021,2000,g  8.5,4.0
# From MPC105235
P/2003 T12 (SOHO),e,11.0178,174.5740,219.7642,2.586091,0.2369946,0.76967997,68.7592,02/21.0/2021,2000,g 17.0,4.0
# From MPC 82312
P/2004 A1 (LONEOS),e,10.5516,124.8467,21.3719,7.957875,0.0439044,0.30932504,265.1084,02/21.0/2021,2000,g  6.5,4.0
# From MPC 54558
P/2004 DO29 (Spacewatch-LINEAR),e,14.5320,147.3760,40.7047,7.283770,0.0501383,0.44124195,299.8507,02/21.0/2021,2000,g 13.5,2.0
# From MPC 54823
P/2004 FY140 (LINEAR),e,2.1348,326.7603,242.4408,4.902344,0.0908026,0.16846122,185.1199,02/21.0/2021,2000,g 12.5,2.0
# From MPC 53304
P/2004 R3 (LINEAR-NEAT),e,12.8213,305.4810,38.3315,4.797932,0.0937828,0.26114372,339.7045,02/21.0/2021,2000,g 14.5,4.0
# From MPC 55521
P/2004 V3 (Siding Spring),e,50.4365,356.1193,322.3208,7.142767,0.0516303,0.44634506,308.1621,02/21.0/2021,2000,g 11.5,4.0
# From MPC 75705
P/2004 V5 (LINEAR-Hill),e,19.3437,47.7762,87.7503,7.977465,0.0437428,0.44353897,256.3212,02/21.0/2021,2000,g  8.0,4.0
# From MPC 54164
P/2005 E1 (Tubbiolo),e,4.2637,335.5691,194.0983,7.038641,0.0527802,0.37514849,309.8148,02/21.0/2021,2000,g 10.0,4.0
# From MPC 54823
P/2005 GF8 (LONEOS),e,1.1927,314.8237,284.9425,5.850399,0.0696507,0.51784398,35.5926,02/21.0/2021,2000,g 11.5,4.0
# From MPC 79019
P/2005 J1 (McNaught),e,31.7647,268.8065,338.9609,3.570074,0.1461128,0.56977398,126.0025,02/21.0/2021,2000,g 16.5,4.0
# From MPC 74246
P/2005 L1 (McNaught),e,7.7385,138.2480,149.7119,3.975297,0.1243511,0.20941996,328.3304,02/21.0/2021,2000,g  9.5,4.0
# From MPC 75706
P/2005 S2 (Skiff),e,3.1357,161.2018,229.1515,8.016399,0.0434245,0.19711213,234.6277,02/21.0/2021,2000,g  7.5,4.0
# From MPC 75706
P/2005 SB216 (LONEOS),e,24.0779,1.2174,83.3796,7.129043,0.0517794,0.46347816,267.1421,02/21.0/2021,2000,g 12.0,2.0
# From MPC 55717
P/2005 T2 (Christensen),e,8.2926,260.1581,58.8192,3.846124,0.1306680,0.41639316,41.6329,02/21.0/2021,2000,g 14.5,4.0
# From MPC 73461
P/2005 T3 (Read),e,6.2242,27.7299,6.9231,7.579854,0.0472294,0.17414707,265.1994,02/21.0/2021,2000,g  9.0,4.0
# From MPC 73461
P/2005 T4 (SWAN),e,160.1947,25.7068,41.6110,9.361150,0.0344120,0.92984404,193.5304,02/21.0/2021,2000,g 15.0,4.0
# From MPC 75706
P/2005 T5 (Broughton),e,21.3560,57.0048,304.5409,7.290783,0.0500660,0.55214122,281.1720,02/21.0/2021,2000,g 11.0,4.0
# From MPC 56954
P/2005 W3 (Kowalski),e,16.4193,210.0865,200.7075,6.330052,0.0618861,0.54341543,346.8914,02/21.0/2021,2000,g 12.0,4.0
# From MPC 75706
P/2005 Y2 (McNaught),e,19.0793,94.4845,193.9790,6.387928,0.0610470,0.47081349,7.5479,02/21.0/2021,2000,g  9.0,4.0
# From MPC 56954
P/2006 F4 (Spacewatch),e,12.4111,183.8513,31.0855,3.524922,0.1489292,0.33964153,84.6602,02/21.0/2021,2000,g 15.0,4.0
# From MPC 75707
P/2006 HR30 (Siding Spring),e,31.8294,309.9038,117.2880,7.811287,0.0451461,0.84213329,234.0256,02/21.0/2021,2000,g 11.0,4.0
# From MPC 75707
P/2006 S4 (Christensen),e,39.5333,36.0894,305.1459,6.313423,0.0621308,0.50815683,339.6432,02/21.0/2021,2000,g 11.0,4.0
# From MPC 75707
P/2007 A2 (Christensen),e,26.4877,300.9066,186.7470,6.326147,0.0619434,0.55764018,319.9642,02/21.0/2021,2000,g 13.5,4.0
# From MPC 75707
P/2007 C2 (Catalina),e,8.6486,275.5800,179.9609,6.992937,0.0532985,0.47041127,260.8542,02/21.0/2021,2000,g 10.0,4.0
# From MPC 84315
C/2007 D1 (LINEAR),e,41.5016,171.1920,340.0677,1486,0.0000172,0.99406099,0.0000,06/09.1378/2007,2000,g  3.5,4.0
# From MPC 82314
P/2007 K2 (Gibbs),e,7.6346,188.6450,347.4569,7.263883,0.0503444,0.68322802,252.2883,02/21.0/2021,2000,g 14.0,4.0
# From MPC 60925
P/2007 Q2 (Gilmore),e,10.2027,172.1600,162.7748,5.653242,0.0733259,0.67016146,6.3083,02/21.0/2021,2000,g 16.0,4.0
# From MPC 75708
P/2007 R4 (Garradd),e,20.2206,87.2209,282.6243,5.931037,0.0682351,0.67010813,340.1574,02/21.0/2021,2000,g 14.5,4.0
# From MPC 73462
P/2007 S1 (Zhao),e,5.9635,141.3753,245.6889,3.814132,0.1323154,0.33958734,281.3473,02/21.0/2021,2000,g 13.0,4.0
# From MPC 61994
P/2007 T2 (Kowalski),e,9.7467,3.3746,359.6366,3.047070,0.1853022,0.78530742,174.7753,02/21.0/2021,2000,g 18.5,4.0
# From MPC 75708
P/2008 CL94 (Lemmon),e,8.3469,33.3269,80.4797,6.161605,0.0644411,0.12034213,346.3215,02/21.0/2021,2000,g  8.0,4.0
# From MPC 75709
P/2008 L2 (Hill),e,25.8590,218.0065,141.2160,6.028632,0.0665849,0.61310695,306.1209,02/21.0/2021,2000,g 12.5,4.0
# From MPC 64114
P/2008 O3 (Boattini),e,32.2590,47.5931,341.0917,8.222361,0.0418032,0.69524200,194.6642,02/21.0/2021,2000,g 13.0,4.0
# From MPC 75709
P/2008 QP20 (LINEAR-Hill),e,7.5225,322.0733,75.5752,3.553617,0.1471289,0.49206530,313.6354,02/21.0/2021,2000,g 15.5,4.0
# From MPC 66204
P/2008 WZ96 (LINEAR),e,7.1113,56.4601,341.8978,3.489107,0.1512281,0.47012480,331.7617,02/21.0/2021,2000,g 13.5,4.0
# From MPC 75710
P/2008 Y3 (McNaught),e,38.7644,262.7950,238.2425,8.046382,0.0431820,0.44548281,191.7981,02/21.0/2021,2000,g  8.5,4.0
# From MPC 75710
P/2009 B1 (Boattini),e,22.2193,297.0912,128.8859,6.736413,0.0563717,0.63472552,249.6259,02/21.0/2021,2000,g 13.0,4.0
# From MPC 66466
C/2009 G1 (STEREO),e,108.7450,120.4341,175.4034,431.2575,0.0001101,0.99736659,0.0000,04/15.4772/2009,2000,g  9.0,4.0
# From MPC 75710
P/2009 O3 (Hill),e,16.2686,183.7097,154.4018,7.769978,0.0455066,0.68764951,195.3940,02/21.0/2021,2000,g 12.5,4.0
# From MPC 98557
P/2009 Q1 (Hill),e,14.5056,173.9597,157.1265,5.520549,0.0759855,0.49484840,325.2643,02/21.0/2021,2000,g 11.5,4.0
# From MPC 68902
P/2009 Q5 (McNaught),e,40.9789,160.2685,209.0217,7.437179,0.0485950,0.60884555,203.5377,02/21.0/2021,2000,g 10.0,4.0
# From MPC112389
P/2009 T2 (La Sagra),e,27.5537,215.8035,216.4048,7.723904,0.0459144,0.76519576,187.0459,02/21.0/2021,2000,g 14.0,4.0
# From MPC 75711
P/2009 U4 (McNaught),e,10.0805,55.3526,259.8378,5.083719,0.0859868,0.67611058,1.7115,02/21.0/2021,2000,g 14.0,4.0
# From MPC105235
P/2009 WX51 (Catalina),e,9.5954,31.6827,118.0750,3.080540,0.1822904,0.74029475,17.6160,02/21.0/2021,2000,g 19.0,2.0
# From MPC 74247
P/2009 Y2 (Kowalski),e,29.9306,262.0245,172.1591,6.549502,0.0588019,0.63592753,235.7607,02/21.0/2021,2000,g 13.0,4.0
# From MPC 75711
P/2010 A3 (Hill),e,14.8524,63.9948,42.0187,6.076561,0.0657987,0.73336939,262.5307,02/21.0/2021,2000,g 14.0,4.0
# From MPC 75008
P/2010 C1 (Scotti),e,9.1281,141.8859,3.7341,7.103205,0.0520622,0.25867011,214.3081,02/21.0/2021,2000,g  9.5,4.0
# From MPC 75008
P/2010 D2 (WISE),e,57.0847,319.8919,120.0705,6.716226,0.0566260,0.45090916,227.8662,02/21.0/2021,2000,g 16.0,4.0
# From MPC 75009
P/2010 E2 (Jarnac),e,15.4013,177.8244,8.3674,8.638503,0.0388192,0.72007953,154.4015,02/21.0/2021,2000,g 14.0,4.0
# From MPC 72851
P/2010 H2 (Vales),e,14.2734,64.2024,128.1614,3.834037,0.1312863,0.19574359,165.5636,02/21.0/2021,2000,g  6.0,4.0
# From MPC 70361
P/2010 H3 (SOHO),e,23.0875,77.1009,26.1386,3.038224,0.1861120,0.98538632,0.0000,02/07.9651/2021,2000,g 20.0,2.0
# From MPC 73463
P/2010 H4 (Scotti),e,2.3187,44.7440,179.5522,6.590591,0.0582529,0.26737102,227.1606,02/21.0/2021,2000,g 10.5,4.0
# From MPC 74637
P/2010 H5 (Scotti),e,14.0653,24.8074,175.2450,7.160186,0.0514420,0.15345346,204.3392,02/21.0/2021,2000,g 13.0,2.0
# From MPC 98558
P/2010 J3 (McMillan),e,13.2881,106.4126,157.5918,8.971402,0.0366787,0.72710629,140.4078,02/21.0/2021,2000,g 11.0,4.0
# From MPC 84315
P/2010 JC81 (WISE),e,38.7333,30.8451,12.4365,8.110438,0.0426715,0.77683637,153.4277,02/21.0/2021,2000,g  9.0,4.0
# From MPC 74248
P/2010 T2 (PANSTARRS),e,7.9061,58.9706,353.5464,5.520947,0.0759773,0.32148221,274.3390,02/21.0/2021,2000,g 11.5,4.0
# From MPC 98558
P/2010 TO20 (LINEAR-Grauer),e,2.4791,43.2959,266.7627,5.829883,0.0700187,0.05477556,315.4383,02/21.0/2021,2000,g  9.0,4.0
# From MPC 82316
P/2010 U1 (Boattini),e,8.2145,280.7135,85.9236,6.510988,0.0593245,0.24819744,240.0430,02/21.0/2021,2000,g  9.5,4.0
# From MPC119994
C/2010 U3 (Boattini),e,55.5241,43.0280,88.0673,2336,0.0000087,0.99638440,0.0000,02/25.7662/2019,2000,g  1.0,4.0
# From MPC 79021
P/2010 UH55 (Spacewatch),e,8.0436,232.9693,225.1821,6.651791,0.0574508,0.56342067,206.9627,02/21.0/2021,2000,g 11.0,4.0
# From MPC 75009
P/2010 WK (LINEAR),e,11.4007,11.3188,40.9800,5.760789,0.0712822,0.68984973,271.0902,02/21.0/2021,2000,g 14.5,2.0
# From MPC 82317
